[{"OBJECT_NAME":"TIANQI-29","OBJECT_ID":"2024-170A","EPOCH":"2026-03-09T20:46:41.243232","MEAN_MOTION":13.99108812,"ECCENTRICITY":0.00055066,"INCLINATION":44.8559,"RA_OF_ASC_NODE":219.5799,"ARG_OF_PERICENTER":342.0099,"MEAN_ANOMALY":18.0536,"EPHEMERIS_TYPE":0,"CLASSIFICATION_TYPE":"U","NORAD_CAT_ID":61195,"ELEMENT_SET_NO":999,"REV_AT_EPOCH":7495,"BSTAR":0.00015072092,"MEAN_MOTION_DOT":9.2e-7,"MEAN_MOTION_DDOT":0},{"OBJECT_NAME":"COSMOS 1275 DEB","OBJECT_ID":"1981-053NS","EPOCH":"2026-03-09T12:10:44.321952","MEAN_MOTION":13.76436608,"ECCENTRICITY":0.01174293,"INCLINATION":83.0213,"RA_OF_ASC_NODE":346.2117,"ARG_OF_PERICENTER":211.6962,"MEAN_ANOMALY":147.7089,"EPHEMERIS_TYPE":0,"CLASSIFICATION_TYPE":"U","NORAD_CAT_ID":39956,"ELEMENT_SET_NO":999,"REV_AT_EPOCH":58859,"BSTAR":0.001048595,"MEAN_MOTION_DOT":1.093e-5,"MEAN_MOTION_DDOT":0}]
